[{"OBJECT_NAME":"STARLINK-1231","OBJECT_ID":"2020-012AL","EPOCH":"2026-03-09T22:37:47.053344","MEAN_MOTION":15.21109103,"ECCENTRICITY":0.00044424,"INCLINATION":53.0512,"RA_OF_ASC_NODE":14.6305,"ARG_OF_PERICENTER":85.7688,"MEAN_ANOMALY":274.3815,"EPHEMERIS_TYPE":0,"CLASSIFICATION_TYPE":"U","NORAD_CAT_ID":45212,"ELEMENT_SET_NO":999,"REV_AT_EPOCH":33526,"BSTAR":0.0021253625,"MEAN_MOTION_DOT":0.00047876,"MEAN_MOTION_DDOT":0},{"OBJECT_NAME":"YAOGAN-36 04A","OBJECT_ID":"2022-171A","EPOCH":"2026-03-09T13:33:55.536768","MEAN_MOTION":15.19645021,"ECCENTRICITY":0.0007143,"INCLINATION":34.9894,"RA_OF_ASC_NODE":125.487,"ARG_OF_PERICENTER":123.655,"MEAN_ANOMALY":236.4846,"EPHEMERIS_TYPE":0,"CLASSIFICATION_TYPE":"U","NORAD_CAT_ID":54746,"ELEMENT_SET_NO":999,"REV_AT_EPOCH":17995,"BSTAR":0.00040159,"MEAN_MOTION_DOT":8.745e-5,"MEAN_MOTION_DDOT":0}]
